{
  "type": "FeatureCollection",
  "features": [
    {
      "type": "Feature",
      "properties": {
        "norad_id": 34366,
        "name": "IRIDIUM 33 DEB",
        "group": "iridium-33-debris",
        "lat": 25.832769575977725,
        "lon": 44.96808232364813,
        "alt_km": 705.7096686991481,
        "timestamp": "2025-12-26T18:39:32.665474+00:00",
        "meta_object_name": "IRIDIUM 33 DEB",
        "meta_object_id": "1997-051FJ",
        "meta_epoch": "2025-12-26T03:56:31.227648",
        "meta_mean_motion": 14.54157583,
        "meta_eccentricity": 0.00230515,
        "meta_inclination": 86.3679,
        "meta_ra_of_asc_node": 43.4727,
        "meta_arg_of_pericenter": 98.1181,
        "meta_mean_anomaly": 320.0434,
        "meta_ephemeris_type": 0,
        "meta_classification_type": "U",
        "meta_norad_cat_id": 34366,
        "meta_element_set_no": 999,
        "meta_rev_at_epoch": 88377,
        "meta_bstar": 0.00085396715,
        "meta_mean_motion_dot": 3.644e-05,
        "meta_mean_motion_ddot": 0,
        "tle_line1": "1 34366U 97051FJ  25360.16425032  .00003644  00000+0  85397-3 0  9994",
        "tle_line2": "2 34366  86.3679  43.4727 0023051  98.1181 320.0434 14.54157583883771"
      },
      "geometry": {
        "type": "Point",
        "coordinates": [
          44.96808232364813,
          25.832769575977725
        ]
      }
    },
    {
      "type": "Feature",
      "properties": {
        "norad_id": 34375,
        "name": "IRIDIUM 33 DEB",
        "group": "iridium-33-debris",
        "lat": -80.31237439380673,
        "lon": 155.60777428590166,
        "alt_km": 911.2540322007371,
        "timestamp": "2025-12-26T18:39:32.665484+00:00",
        "meta_object_name": "IRIDIUM 33 DEB",
        "meta_object_id": "1997-051FT",
        "meta_epoch": "2025-12-26T12:31:30.469152",
        "meta_mean_motion": 14.18016957,
        "meta_eccentricity": 0.0103684,
        "meta_inclination": 86.4324,
        "meta_ra_of_asc_node": 177.1462,
        "meta_arg_of_pericenter": 83.6449,
        "meta_mean_anomaly": 331.8283,
        "meta_ephemeris_type": 0,
        "meta_classification_type": "U",
        "meta_norad_cat_id": 34375,
        "meta_element_set_no": 999,
        "meta_rev_at_epoch": 86907,
        "meta_bstar": 0.00041616692,
        "meta_mean_motion_dot": 9.18e-06,
        "meta_mean_motion_ddot": 0,
        "tle_line1": "1 34375U 97051FT  25360.52188043  .00000918  00000+0  41617-3 0  9990",
        "tle_line2": "2 34375  86.4324 177.1462 0103684  83.6449 331.8283 14.18016957869075"
      },
      "geometry": {
        "type": "Point",
        "coordinates": [
          155.60777428590166,
          -80.31237439380673
        ]
      }
    },
    {
      "type": "Feature",
      "properties": {
        "norad_id": 34376,
        "name": "IRIDIUM 33 DEB",
        "group": "iridium-33-debris",
        "lat": 24.734226116144914,
        "lon": 1.9360464476033052,
        "alt_km": 685.7195715695461,
        "timestamp": "2025-12-26T18:39:32.665495+00:00",
        "meta_object_name": "IRIDIUM 33 DEB",
        "meta_object_id": "1997-051FU",
        "meta_epoch": "2025-12-26T10:20:12.762528",
        "meta_mean_motion": 14.62756045,
        "meta_eccentricity": 0.00286269,
        "meta_inclination": 86.2983,
        "meta_ra_of_asc_node": 0.3829,
        "meta_arg_of_pericenter": 122.009,
        "meta_mean_anomaly": 238.3909,
        "meta_ephemeris_type": 0,
        "meta_classification_type": "U",
        "meta_norad_cat_id": 34376,
        "meta_element_set_no": 999,
        "meta_rev_at_epoch": 88207,
        "meta_bstar": 0.0014942059,
        "meta_mean_motion_dot": 7.684e-05,
        "meta_mean_motion_ddot": 0,
        "tle_line1": "1 34376U 97051FU  25360.43070327  .00007684  00000+0  14942-2 0  9993",
        "tle_line2": "2 34376  86.2983   0.3829 0028626 122.0090 238.3909 14.62756045882070"
      },
      "geometry": {
        "type": "Point",
        "coordinates": [
          1.9360464476033052,
          24.734226116144914
        ]
      }
    },
    {
      "type": "Feature",
      "properties": {
        "norad_id": 34486,
        "name": "IRIDIUM 33 DEB",
        "group": "iridium-33-debris",
        "lat": 50.22957264756489,
        "lon": -178.8046299923408,
        "alt_km": 568.267711513211,
        "timestamp": "2025-12-26T18:39:32.665506+00:00",
        "meta_object_name": "IRIDIUM 33 DEB",
        "meta_object_id": "1997-051GB",
        "meta_epoch": "2025-12-26T00:39:56.499264",
        "meta_mean_motion": 14.96400313,
        "meta_eccentricity": 0.00139183,
        "meta_inclination": 86.3935,
        "meta_ra_of_asc_node": 5.8877,
        "meta_arg_of_pericenter": 74.4824,
        "meta_mean_anomaly": 338.8012,
        "meta_ephemeris_type": 0,
        "meta_classification_type": "U",
        "meta_norad_cat_id": 34486,
        "meta_element_set_no": 999,
        "meta_rev_at_epoch": 89185,
        "meta_bstar": 0.0021412617,
        "meta_mean_motion_dot": 0.00024383,
        "meta_mean_motion_ddot": 0,
        "tle_line1": "1 34486U 97051GB  25360.02773726  .00024383  00000+0  21413-2 0  9999",
        "tle_line2": "2 34486  86.3935   5.8877 0013918  74.4824 338.8012 14.96400313891854"
      },
      "geometry": {
        "type": "Point",
        "coordinates": [
          -178.8046299923408,
          50.22957264756489
        ]
      }
    },
    {
      "type": "Feature",
      "properties": {
        "norad_id": 34487,
        "name": "IRIDIUM 33 DEB",
        "group": "iridium-33-debris",
        "lat": -4.1398754457180695,
        "lon": 6.067571487979834,
        "alt_km": 750.7858364866624,
        "timestamp": "2025-12-26T18:39:32.665517+00:00",
        "meta_object_name": "IRIDIUM 33 DEB",
        "meta_object_id": "1997-051GC",
        "meta_epoch": "2025-12-26T00:37:21.163296",
        "meta_mean_motion": 14.43232747,
        "meta_eccentricity": 0.00332617,
        "meta_inclination": 86.3429,
        "meta_ra_of_asc_node": 6.6563,
        "meta_arg_of_pericenter": 87.1121,
        "meta_mean_anomaly": 327.0907,
        "meta_ephemeris_type": 0,
        "meta_classification_type": "U",
        "meta_norad_cat_id": 34487,
        "meta_element_set_no": 999,
        "meta_rev_at_epoch": 88440,
        "meta_bstar": 0.00018559814,
        "meta_mean_motion_dot": 6.49e-06,
        "meta_mean_motion_ddot": 0,
        "tle_line1": "1 34487U 97051GC  25360.02593939  .00000649  00000+0  18560-3 0  9995",
        "tle_line2": "2 34487  86.3429   6.6563 0033261  87.1121 327.0907 14.43232747884400"
      },
      "geometry": {
        "type": "Point",
        "coordinates": [
          6.067571487979834,
          -4.1398754457180695
        ]
      }
    },
    {
      "type": "Feature",
      "properties": {
        "norad_id": 34488,
        "name": "IRIDIUM 33 DEB",
        "group": "iridium-33-debris",
        "lat": 80.85865311829788,
        "lon": -37.61436217519276,
        "alt_km": 455.903764077334,
        "timestamp": "2025-12-26T18:39:32.665527+00:00",
        "meta_object_name": "IRIDIUM 33 DEB",
        "meta_object_id": "1997-051GD",
        "meta_epoch": "2025-12-25T20:22:16.973184",
        "meta_mean_motion": 15.32823177,
        "meta_eccentricity": 0.00085439,
        "meta_inclination": 86.325,
        "meta_ra_of_asc_node": 299.3053,
        "meta_arg_of_pericenter": 30.257,
        "meta_mean_anomaly": 329.9171,
        "meta_ephemeris_type": 0,
        "meta_classification_type": "U",
        "meta_norad_cat_id": 34488,
        "meta_element_set_no": 999,
        "meta_rev_at_epoch": 89440,
        "meta_bstar": 0.0046585997,
        "meta_mean_motion_dot": 0.00150449,
        "meta_mean_motion_ddot": 0,
        "tle_line1": "1 34488U 97051GD  25359.84880756  .00150449  00000+0  46586-2 0  9992",
        "tle_line2": "2 34488  86.3250 299.3053 0008543  30.2570 329.9171 15.32823177894407"
      },
      "geometry": {
        "type": "Point",
        "coordinates": [
          -37.61436217519276,
          80.85865311829788
        ]
      }
    },
    {
      "type": "Feature",
      "properties": {
        "norad_id": 34492,
        "name": "IRIDIUM 33 DEB",
        "group": "iridium-33-debris",
        "lat": -68.25773596197384,
        "lon": -39.942567129653135,
        "alt_km": 831.1125640184628,
        "timestamp": "2025-12-26T18:39:32.665538+00:00",
        "meta_object_name": "IRIDIUM 33 DEB",
        "meta_object_id": "1997-051GH",
        "meta_epoch": "2025-12-24T21:39:21.521088",
        "meta_mean_motion": 14.25932668,
        "meta_eccentricity": 0.0188786,
        "meta_inclination": 86.473,
        "meta_ra_of_asc_node": 329.7114,
        "meta_arg_of_pericenter": 198.6425,
        "meta_mean_anomaly": 190.963,
        "meta_ephemeris_type": 0,
        "meta_classification_type": "U",
        "meta_norad_cat_id": 34492,
        "meta_element_set_no": 999,
        "meta_rev_at_epoch": 85232,
        "meta_bstar": 0.0029502,
        "meta_mean_motion_dot": 8.501e-05,
        "meta_mean_motion_ddot": 0,
        "tle_line1": "1 34492U 97051GH  25358.90233242  .00008501  00000+0  29502-2 0  9995",
        "tle_line2": "2 34492  86.4730 329.7114 0188786 198.6425 190.9630 14.25932668852326"
      },
      "geometry": {
        "type": "Point",
        "coordinates": [
          -39.942567129653135,
          -68.25773596197384
        ]
      }
    }
  ]
}